*******************************************************************************
Ephemeris / WWW_USER Mon Mar 10 07:11:36 2025 Pasadena, USA      / Horizons    
*******************************************************************************
Target body name: (2018 OG)                       {source: JPL#12}
Center body name: Earth (399)                     {source: DE441}
Center-site name: Mauna Kea
*******************************************************************************
Start time      : A.D. 2019-Jan-22 04:17:00.0000 UT      
Stop  time      : A.D. 2019-Jan-22 16:49:00.0000 UT      
Step-size       : 1 minutes
*******************************************************************************
Target pole/equ : undefined
Target radii    : undefined                                                    
Center geodetic : 204.5278, 19.8260847, 4.21024   {E-lon(deg),Lat(deg),Alt(km)}
Center cylindric: 204.5278, 6006.35451, 2151.0229 {E-lon(deg),Dxy(km),Dz(km)}
Center pole/equ : ITRF93                          {East-longitude positive}
Center radii    : 6378.137, 6378.137, 6356.752 km {Equator_a, b, pole_c}       
Target primary  : Sun
Vis. interferer : MOON (R_eq= 1737.400) km        {source: DE441}
Rel. light bend : Sun                             {source: DE441}
Rel. lght bnd GM: 1.3271E+11 km^3/s^2                                          
Small-body perts: Yes                             {source: SB441-N16}
Atmos refraction: NO (AIRLESS)
RA format       : HMS
Time format     : CAL 
Calendar mode   : Mixed Julian/Gregorian
RTS-only print  : NO       
EOP file        : eop.250307.p250603                                           
EOP coverage    : DATA-BASED 1962-JAN-20 TO 2025-MAR-07. PREDICTS-> 2025-JUN-02
Units conversion: 1 au= 149597870.700 km, c= 299792.458 km/s, 1 day= 86400.0 s 
Table cut-offs 1: Elevation (-90.0deg=NO ),Airmass (>38.000=NO), Daylight (YES)
Table cut-offs 2: Solar elongation (  0.0,180.0=NO ),Local Hour Angle( 0.0=NO )
Table cut-offs 3: RA/DEC angular rate (     0.0=NO )                           
*******************************************************************************
Initial IAU76/J2000 heliocentric ecliptic osculating elements (au, days, deg.):
  EPOCH=  2458389.5 ! 2018-Sep-28.00 (TDB)         Residual RMS= .17662        
   EC= .5817218672922059   QR= .9873203561553971   TP= 2458366.942240702       
   OM= 131.0345430575832   W=  220.7633135105564   IN= 9.123860581277821       
  Equivalent ICRF heliocentric cartesian coordinates (au, au/d):
   X= 9.625437195102586E-01  Y= 3.686106454146055E-01  Z=-5.877845729655690E-03
  VX=-3.555418036941177E-03 VY= 1.979451357965206E-02 VZ= 6.659913004156397E-03
Asteroid physical parameters (km, seconds, rotational period in hours):        
   GM= n.a.                RAD= n.a.               ROTPER= n.a.                
   H= 23.6                 G= .150                 B-V= n.a.                   
                           ALBEDO= n.a.            STYP= n.a.                  
*******************************************************************************
 Date__(UT)__HR:MN     R.A._________(ICRF)_________DEC
******************************************************
$$SOE
 2019-Jan-22 14:32  m  05 03 20.394711 +13 55 37.39368
 2019-Jan-22 14:33  m  05 03 20.404581 +13 55 37.84080
 2019-Jan-22 14:34  m  05 03 20.414462 +13 55 38.28794
 2019-Jan-22 14:35  m  05 03 20.424353 +13 55 38.73508
 2019-Jan-22 14:36  m  05 03 20.434256 +13 55 39.18223
 2019-Jan-22 14:37  m  05 03 20.444169 +13 55 39.62938
 2019-Jan-22 14:38  m  05 03 20.454094 +13 55 40.07655
 2019-Jan-22 14:39  m  05 03 20.464029 +13 55 40.52372
 2019-Jan-22 14:40  m  05 03 20.473974 +13 55 40.97090
 2019-Jan-22 14:41  m  05 03 20.483931 +13 55 41.41808
 2019-Jan-22 14:42  m  05 03 20.493898 +13 55 41.86528
 2019-Jan-22 14:43  m  05 03 20.503876 +13 55 42.31248
 2019-Jan-22 14:44  m  05 03 20.513865 +13 55 42.75970
 2019-Jan-22 14:45  m  05 03 20.523864 +13 55 43.20692
 2019-Jan-22 14:46  m  05 03 20.533874 +13 55 43.65415
 2019-Jan-22 14:47  m  05 03 20.543895 +13 55 44.10138
 2019-Jan-22 14:48  m  05 03 20.553926 +13 55 44.54863
 2019-Jan-22 14:49  m  05 03 20.563968 +13 55 44.99589
 2019-Jan-22 14:50  m  05 03 20.574021 +13 55 45.44316
 2019-Jan-22 14:51  m  05 03 20.584084 +13 55 45.89043
 2019-Jan-22 14:52  m  05 03 20.594158 +13 55 46.33772
 2019-Jan-22 14:53  m  05 03 20.604242 +13 55 46.78501
 2019-Jan-22 14:54  m  05 03 20.614337 +13 55 47.23232
 2019-Jan-22 14:55  m  05 03 20.624442 +13 55 47.67964
 2019-Jan-22 14:56  m  05 03 20.634558 +13 55 48.12696
 2019-Jan-22 14:57  m  05 03 20.644685 +13 55 48.57430
 2019-Jan-22 14:58  m  05 03 20.654821 +13 55 49.02164
 2019-Jan-22 14:59  m  05 03 20.664969 +13 55 49.46900
 2019-Jan-22 15:00  m  05 03 20.675126 +13 55 49.91637
 2019-Jan-22 15:01  m  05 03 20.685294 +13 55 50.36375
 2019-Jan-22 15:02  m  05 03 20.695473 +13 55 50.81114
 2019-Jan-22 15:03  m  05 03 20.705661 +13 55 51.25854
 2019-Jan-22 15:04  m  05 03 20.715860 +13 55 51.70596
 2019-Jan-22 15:05  m  05 03 20.726070 +13 55 52.15338
 2019-Jan-22 15:06  m  05 03 20.736290 +13 55 52.60082
 2019-Jan-22 15:07  m  05 03 20.746520 +13 55 53.04827
 2019-Jan-22 15:08  m  05 03 20.756760 +13 55 53.49573
 2019-Jan-22 15:09  m  05 03 20.767010 +13 55 53.94320
 2019-Jan-22 15:10  m  05 03 20.777271 +13 55 54.39068
 2019-Jan-22 15:11  m  05 03 20.787542 +13 55 54.83818
 2019-Jan-22 15:12  m  05 03 20.797823 +13 55 55.28569
 2019-Jan-22 15:13  m  05 03 20.808114 +13 55 55.73321
 2019-Jan-22 15:14  m  05 03 20.818416 +13 55 56.18075
 2019-Jan-22 15:15  m  05 03 20.828727 +13 55 56.62830
 2019-Jan-22 15:16  m  05 03 20.839049 +13 55 57.07586
 2019-Jan-22 15:17  m  05 03 20.849380 +13 55 57.52344
 2019-Jan-22 15:18  m  05 03 20.859722 +13 55 57.97102
 2019-Jan-22 15:19  m  05 03 20.870074 +13 55 58.41863
 2019-Jan-22 15:20  m  05 03 20.880435 +13 55 58.86624
 2019-Jan-22 15:21  m  05 03 20.890807 +13 55 59.31387
 2019-Jan-22 15:22  m  05 03 20.901189 +13 55 59.76151
 2019-Jan-22 15:23  m  05 03 20.911580 +13 56 00.20917
 2019-Jan-22 15:24  m  05 03 20.921982 +13 56 00.65684
 2019-Jan-22 15:25  m  05 03 20.932393 +13 56 01.10453
 2019-Jan-22 15:26  m  05 03 20.942814 +13 56 01.55223
 2019-Jan-22 15:27  m  05 03 20.953245 +13 56 01.99994
 2019-Jan-22 15:28  m  05 03 20.963686 +13 56 02.44767
 2019-Jan-22 15:29  m  05 03 20.974136 +13 56 02.89542
 2019-Jan-22 15:30  m  05 03 20.984597 +13 56 03.34318
 2019-Jan-22 15:31  m  05 03 20.995067 +13 56 03.79095
 2019-Jan-22 15:32  m  05 03 21.005547 +13 56 04.23874
 2019-Jan-22 15:33  m  05 03 21.016036 +13 56 04.68655
 2019-Jan-22 15:34  m  05 03 21.026535 +13 56 05.13437
 2019-Jan-22 15:35  m  05 03 21.037044 +13 56 05.58221
 2019-Jan-22 15:36  m  05 03 21.047562 +13 56 06.03006
 2019-Jan-22 15:37  m  05 03 21.058090 +13 56 06.47793
 2019-Jan-22 15:38  m  05 03 21.068628 +13 56 06.92581
 2019-Jan-22 15:39  m  05 03 21.079175 +13 56 07.37371
 2019-Jan-22 15:40  m  05 03 21.089731 +13 56 07.82163
 2019-Jan-22 15:41  m  05 03 21.100297 +13 56 08.26956
 2019-Jan-22 15:42  m  05 03 21.110873 +13 56 08.71751
 2019-Jan-22 15:43 Am  05 03 21.121458 +13 56 09.16548
 2019-Jan-22 15:44 Am  05 03 21.132052 +13 56 09.61347
 2019-Jan-22 15:45 Am  05 03 21.142656 +13 56 10.06147
 2019-Jan-22 15:46 Am  05 03 21.153269 +13 56 10.50948
 2019-Jan-22 15:47 Am  05 03 21.163891 +13 56 10.95752
 2019-Jan-22 15:48 Am  05 03 21.174523 +13 56 11.40557
 2019-Jan-22 15:49 Am  05 03 21.185163 +13 56 11.85364
 2019-Jan-22 15:50 Am  05 03 21.195814 +13 56 12.30173
 2019-Jan-22 15:51 Am  05 03 21.206473 +13 56 12.74984
 2019-Jan-22 15:52 Am  05 03 21.217141 +13 56 13.19796
 2019-Jan-22 15:53 Am  05 03 21.227819 +13 56 13.64610
 2019-Jan-22 15:54 Am  05 03 21.238506 +13 56 14.09426
 2019-Jan-22 15:55 Am  05 03 21.249202 +13 56 14.54244
 2019-Jan-22 15:56 Am  05 03 21.259907 +13 56 14.99064
 2019-Jan-22 15:57 Am  05 03 21.270620 +13 56 15.43885
 2019-Jan-22 15:58 Am  05 03 21.281343 +13 56 15.88708
 2019-Jan-22 15:59 Am  05 03 21.292075 +13 56 16.33534
 2019-Jan-22 16:00 Am  05 03 21.302816 +13 56 16.78361
 2019-Jan-22 16:01 Am  05 03 21.313566 +13 56 17.23190
 2019-Jan-22 16:02 Am  05 03 21.324325 +13 56 17.68021
 2019-Jan-22 16:03 Am  05 03 21.335092 +13 56 18.12854
 2019-Jan-22 16:04 Am  05 03 21.345869 +13 56 18.57688
 2019-Jan-22 16:05 Am  05 03 21.356654 +13 56 19.02525
 2019-Jan-22 16:06 Am  05 03 21.367448 +13 56 19.47364
 2019-Jan-22 16:07 Am  05 03 21.378250 +13 56 19.92204
 2019-Jan-22 16:08 Am  05 03 21.389062 +13 56 20.37047
 2019-Jan-22 16:09 Am  05 03 21.399882 +13 56 20.81892
 2019-Jan-22 16:10 Nm  05 03 21.410711 +13 56 21.26738
 2019-Jan-22 16:11 Nm  05 03 21.421548 +13 56 21.71587
 2019-Jan-22 16:12 Nm  05 03 21.432394 +13 56 22.16438
 2019-Jan-22 16:13 Nm  05 03 21.443248 +13 56 22.61290
 2019-Jan-22 16:14 Nm  05 03 21.454111 +13 56 23.06145
 2019-Jan-22 16:15 Nm  05 03 21.464983 +13 56 23.51002
 2019-Jan-22 16:16 Nm  05 03 21.475863 +13 56 23.95861
 2019-Jan-22 16:17 Nm  05 03 21.486751 +13 56 24.40722
 2019-Jan-22 16:18 Nm  05 03 21.497648 +13 56 24.85585
 2019-Jan-22 16:19 Nm  05 03 21.508553 +13 56 25.30450
 2019-Jan-22 16:20 Nm  05 03 21.519466 +13 56 25.75318
 2019-Jan-22 16:21 Nm  05 03 21.530388 +13 56 26.20187
 2019-Jan-22 16:22 Nm  05 03 21.541318 +13 56 26.65059
 2019-Jan-22 16:23 Nm  05 03 21.552256 +13 56 27.09933
 2019-Jan-22 16:24 Nm  05 03 21.563203 +13 56 27.54809
 2019-Jan-22 16:25 Nm  05 03 21.574157 +13 56 27.99687
 2019-Jan-22 16:26 Nm  05 03 21.585120 +13 56 28.44567
 2019-Jan-22 16:27 Nm  05 03 21.596091 +13 56 28.89449
 2019-Jan-22 16:28 Nm  05 03 21.607070 +13 56 29.34334
 2019-Jan-22 16:29 Nm  05 03 21.618057 +13 56 29.79221
 2019-Jan-22 16:30 Nm  05 03 21.629052 +13 56 30.24110
 2019-Jan-22 16:31 Nm  05 03 21.640055 +13 56 30.69002
 2019-Jan-22 16:32 Nm  05 03 21.651065 +13 56 31.13895
 2019-Jan-22 16:33 Nm  05 03 21.662084 +13 56 31.58791
 2019-Jan-22 16:34 Nm  05 03 21.673111 +13 56 32.03689
